OBJECT_NAME,OBJECT_ID,EPOCH,MEAN_MOTION,ECCENTRICITY,INCLINATION,RA_OF_ASC_NODE,ARG_OF_PERICENTER,MEAN_ANOMALY,EPHEMERIS_TYPE,CLASSIFICATION_TYPE,NORAD_CAT_ID,ELEMENT_SET_NO,REV_AT_EPOCH,BSTAR,MEAN_MOTION_DOT,MEAN_MOTION_DDOT
LDPE-2,2022-144A,2026-07-17T08:01:38.628768,1.00544505,.0002486,5.6696,63.2911,109.8930,113.9269,0,U,54219,999,1214,0,.4E-7,0
EUTELSAT HOTBIRD 13G,2022-146A,2026-07-17T17:37:47.236800,1.00270382,.00020102,0.0166,222.9360,313.0901,36.9871,0,U,54225,999,777,0,0,0
ZHONGXING-19,2022-148A,2026-07-17T22:36:08.134848,1.00270033,.00032192,0.0228,67.7390,66.7480,303.4921,0,U,54230,999,1368,0,0,0
GALAXY 31 (G-31),2022-153A,2026-07-17T21:15:01.697184,1.00272045,.00010925,0.0190,93.6582,25.4002,14.3746,0,U,54243,999,744,0,.4E-7,0
GALAXY 32 (G-32),2022-153B,2026-07-17T19:41:05.949600,1.00272394,.00013882,0.0116,50.5444,355.9350,93.4244,0,U,54244,999,1345,0,-.183E-5,0
EUTELSAT 10B,2022-157A,2026-07-17T13:19:04.629216,1.00266999,.0001588,0.0610,95.5067,12.3958,37.1964,0,U,54259,999,1333,0,.58E-6,0
GALAXY 35 (G-35),2022-170A,2026-07-17T19:40:28.509888,1.00272222,.00018669,0.0137,91.0268,25.2385,21.3699,0,U,54741,999,1320,0,-.171E-5,0
GALAXY 36 (G-36),2022-170B,2026-07-17T19:41:28.413600,1.00271807,.00026141,0.0170,141.2540,317.2384,43.5043,0,U,54742,999,1308,0,-.194E-5,0
METEOSAT-12 (MTG-I1),2022-170C,2026-07-17T20:05:49.410816,1.00268483,.00039224,0.7280,20.2075,81.4619,135.0801,0,U,54743,999,1328,0,-.18E-6,0
SHIJIAN-23 (SJ-23),2023-002A,2026-07-17T18:31:02.746848,1.00075758,.0003413,3.7942,77.9273,273.2206,349.4961,0,U,55131,999,1281,0,-.366E-5,0
APSTAR-6E,2023-005A,2026-07-18T00:07:12.458784,1.00269989,.00026105,0.0151,258.2596,295.1588,238.1914,0,U,55239,999,1899,0,0,0
USA 342,2023-008A,2026-07-15T08:20:54.831840,1.00268904,.0000237,0.0068,33.1422,23.5747,25.6345,0,U,55263,999,1279,0,0,0
LDPE-3A,2023-008B,2026-07-17T23:01:37.579872,0.99149151,.00015754,2.4264,81.2836,73.6328,252.8804,0,U,55264,999,1211,0,-.269E-5,0
ELEKTRO-L 4,2023-016A,2026-07-17T17:14:40.088256,1.00270706,.00015502,0.1143,278.5400,257.1505,184.2905,0,U,55506,999,1264,0,-.68E-6,0
AMAZONAS NEXUS,2023-017A,2026-07-17T12:58:59.053728,1.00269616,.000443,0.0358,45.2576,42.1268,341.7092,0,U,55508,999,734,0,-.292E-5,0
ZHONGXING-26,2023-023A,2026-07-17T22:25:16.676256,1.00267622,.00033349,0.0627,71.3781,28.9526,296.8391,0,U,55686,999,1253,0,-.363E-5,0
LUCH-5X (OLYMP-K 2),2023-031A,2026-07-17T18:32:31.221312,1.00279165,.0001133,0.0281,94.9892,207.6590,333.0511,0,U,55841,999,1224,0,.23E-6,0
GAOFEN-13 02,2023-036A,2026-07-17T19:06:38.489184,1.00273965,.00036476,1.0289,4.9394,337.4920,28.0928,0,U,55912,999,1239,0,-.227E-5,0
SES-18,2023-038A,2026-07-17T14:29:39.905376,1.00270494,.00007699,0.0467,248.0546,313.5372,208.1402,0,U,55970,999,1240,0,-.11E-5,0
SES-19,2023-038B,2026-07-17T17:45:52.744320,1.00270788,.00015671,0.0504,266.8972,213.0873,307.1159,0,U,55971,999,1239,0,.79E-6,0
INTELSAT 40E (IS-40E),2023-052A,2026-07-17T19:41:05.949600,1.00271639,.00022934,0.0133,93.4927,50.3606,356.0519,0,U,56174,999,1213,0,-.183E-5,0
VIASAT-3 F1,2023-060A,2026-07-17T14:33:39.521952,1.00270816,.00006734,0.0125,30.8912,60.7227,333.2635,0,U,56370,999,1173,0,0,0
ARCTURUS,2023-060B,2026-07-17T22:36:21.913056,1.00593461,.00011565,2.8507,79.5572,132.4210,165.0766,0,U,56371,999,1176,0,-.357E-5,0
GS-1,2023-060C,2026-07-17T18:49:47.604000,1.00266033,.00033444,2.8015,79.4677,280.0809,307.7517,0,U,56372,999,784,0,-.232E-5,0
BEIDOU-3 G4,2023-066A,2026-07-17T22:29:31.269408,1.00271768,.00049651,0.4580,339.7726,185.3706,248.0522,0,U,56564,999,1170,0,-.289E-5,0
ARABSAT-7B (BADR-8),2023-075A,2026-07-17T20:08:38.692608,1.00271101,.00033987,0.0726,29.6269,2.1474,232.0280,0,U,56757,999,1142,0,.135E-5,0
NVS-01 (IRNSS-1J),2023-076A,2026-07-17T22:26:31.557408,1.00277341,.00030808,2.0949,242.9457,20.1968,138.6592,0,U,56759,999,1142,0,-.344E-5,0
NUSANTARA TIGA (SATRIA),2023-086A,2026-07-17T13:07:38.548416,1.00268024,.0002101,0.0360,16.4967,320.1785,301.5827,0,U,57045,999,1006,0,-.245E-5,0
H2SAT (HEINRICH HERTZ),2023-093A,2026-07-17T09:51:13.959936,1.00271511,.0000091,0.0264,100.9600,319.8743,22.8857,0,U,57213,999,1121,0,-.8E-7,0
SYRACUSE 4B,2023-093B,2026-07-17T18:22:32.884032,1.00271697,.00002468,0.0188,53.9922,207.9660,302.7871,0,U,57214,999,727,0,-.63E-6,0
JUPITER 3 (ECHOSTAR 24),2023-108A,2026-07-17T10:39:40.214016,1.00270479,.00011463,0.0132,45.4503,72.3675,242.1733,0,U,57479,999,1095,0,-.16E-5,0
